[{"OBJECT_NAME":"STARLINK-5270","OBJECT_ID":"2023-010AG","EPOCH":"2026-03-09T21:30:57.397824","MEAN_MOTION":14.9832395,"ECCENTRICITY":0.00027794,"INCLINATION":70.0014,"RA_OF_ASC_NODE":23.7967,"ARG_OF_PERICENTER":270.2355,"MEAN_ANOMALY":89.8485,"EPHEMERIS_TYPE":0,"CLASSIFICATION_TYPE":"U","NORAD_CAT_ID":55299,"ELEMENT_SET_NO":999,"REV_AT_EPOCH":17418,"BSTAR":5.9683956e-5,"MEAN_MOTION_DOT":6.19e-6,"MEAN_MOTION_DDOT":0},{"OBJECT_NAME":"COSMOS 44","OBJECT_ID":"1964-053A","EPOCH":"2026-03-09T21:59:01.891968","MEAN_MOTION":14.65674855,"ECCENTRICITY":0.01500487,"INCLINATION":65.0577,"RA_OF_ASC_NODE":259.0656,"ARG_OF_PERICENTER":297.9455,"MEAN_ANOMALY":60.6525,"EPHEMERIS_TYPE":0,"CLASSIFICATION_TYPE":"U","NORAD_CAT_ID":876,"ELEMENT_SET_NO":999,"REV_AT_EPOCH":27412,"BSTAR":5.8309856e-5,"MEAN_MOTION_DOT":2.3e-6,"MEAN_MOTION_DDOT":0}]
